SBSS (USA 216)          
1 37168U 10048A   26068.88624904  .00004946  00000+0  24191-3 0  9993
2 37168  97.7474 312.3885 0082264 184.8326 306.5835 15.15724210837421
STARLINK-31012          
1 58531U 23192A   26068.21080447  .00000482  00000+0  28406-4 0  9994
2 58531  53.1617  64.8527 0001324  92.8597 267.2556 15.30194258125918
